SWOT                    
1 54754U 22173A   22352.33012637  .00137769  00000+0  76186-1 0  9990
2 54754  77.5941 323.5719 0003862  21.2124  86.2553 14.10353901   254
